GLOBALSTAR M075         
1 37192U 10054E   25220.41610106 -.00000094  00000+0  54688-4 0  9990
2 37192  51.9967  22.5114 0000824  90.4711 289.1839 12.62266517682444
GLOBALSTAR M073         
1 37193U 10054F   25220.59064019 -.00000071  00000+0  18296-3 0  9995
2 37193  52.0069 295.8415 0000669 105.8553 347.7603 12.62261632684457
GLOBALSTAR M083         
1 37739U 11033A   25220.54081855 -.00000108  00000+0 -25707-4 0  9999
2 37739  51.9844 244.6539 0000256  78.4630  86.7911 12.62275016653464
GLOBALSTAR M088         
1 37740U 11033B   25220.51576521 -.00000118  00000+0 -79166-4 0  9996
2 37740  52.0208 150.3960 0000390  35.4485 136.9042 12.62267010649006
GLOBALSTAR M091         
1 37741U 11033C   25220.13117852 -.00000098  00000+0  31067-4 0  9997
2 37741  51.9994 114.9932 0000714  35.8142 129.0241 12.62269598649744
GLOBALSTAR M085         
1 37742U 11033D   25220.35691075 -.00000094  00000+0  54004-4 0  9998
2 37742  52.0128  65.3240 0000836  57.2767 114.1137 12.62263977650288
GLOBALSTAR M081         
1 37743U 11033E   25220.50779444 -.00000082  00000+0  12085-3 0  9992
2 37743  51.9960  67.6590 0000975  66.6543 309.2349 12.62267446650450
GLOBALSTAR M089         
1 37744U 11033F   25220.64055186 -.00000109  00000+0 -29541-4 0  9995
2 37744  51.9949  21.4711 0000988 104.2225 336.2875 12.62265629651312
